eventid,iyear,imonth,iday,approxdate,extended,resolution,country,country_txt,region,region_txt,provstate,city,latitude,longitude,specificity,vicinity,location,summary,crit1,crit2,crit3,doubleterr,alternative,alternative_txt,multiple,success,suicide,attacktype1,attacktype1_txt,attacktype2,attacktype2_txt,attacktype3,attacktype3_txt,targtype1,targtype1_txt,targsubtype1,targsubtype1_txt,corp1,target1,natlty1,natlty1_txt,targtype2,targtype2_txt,targsubtype2,targsubtype2_txt,corp2,target2,natlty2,natlty2_txt,targtype3,targtype3_txt,targsubtype3,targsubtype3_txt,corp3,target3,natlty3,natlty3_txt,gname,gsubname,gname2,gsubname2,gname3,gsubname3,motive,guncertain1,guncertain2,guncertain3,individual,nperps,npercap,claimed,claimmode,claimmode_txt,claim2,claimmode2,claimmode_txt2,claim3,claimmode3,claimmodetxt_3,compclaim,weaptype1,weaptype1_txt,weapsubtype1,weapsubtype1_txt,weaptype2,weaptype2_txt,weapsubtype2,weapsubtype2_txt,weaptype3,weaptype3_txt,weapsubtype3,weapsubtype3_txt,weaptype4,weaptype4_txt,weapsubtype4,weapsubtype4_txt,weapdetail,nreleased,addnotes,scite1,scite2,scite3
200804210001,2008,4,21,,0,,14,Australia,12,"Australasia & Oceania",Queensland,"Vale View",-27.661735,151.897583,1,0,"The attempted bombing took place in Federation Park on the Drayton Connection Road, near Vale View south of Toowoomba, Queensland, Australia.","04/21/2008: On Monday, a 30 mm pipe bomb rigged with external batteries and a mobile phone was detonated by the police bomb squad unit after it was found by council workers in Federation Park on the Drayton Connection Road, near Vale View south of Toowoomba, Queensland, Australia. No claim of responsibility was made for the attempted bombing, however on 04/22/2008 on Tuesday, executed a search warrant at a home in Kent Street at Oakey and allegedly found evidence of a home-made explosive device. A 21-year-old man was arrested and charged with one count of attempting to damage property by explosives.",1,1,1,0,,,0,0,0,3,Bombing/Explosion,,,,,14,"Private Citizens & Property",79,"Public Area (garden, parking lot, garage, beach, public building, camp)",,"Federation Park",14,Australia,,,,,,,,,,,,,,,,,Unknown,,,,,,"The specific motive for the attack is unknown or was not reported.",0,,,0,1,1,0,,,,,,,,,,6,Explosives,12,"Remote Trigger",,,,,,,,,,,,,"A mobile phone-triggered, battery-powered, 30 mm pipe was used in the attack.",,,"News.com.au, "Police Destroy Pipe Bomb Found at Toowoomba Park"," http://news.com.au (accessed April 22"," 2008).""
200812080008,2008,12,8,,0,,14,Australia,12,"Australasia & Oceania","Western Australia",Joondalup,-31.743357,115.764172,1,0,"Joondalup Police Station","12/08/2008: On Monday, a Holden Rodeo ute vehicle carrying a 220-liter fuel tank was backed into the Joondalup police station and set aflame. The attack damaged two offices, one of which was the inspector's District Office. No casualties were reported.",1,1,1,0,,,0,1,0,7,"Facility/Infrastructure Attack",,,,,3,Police,22,"Police Building (headquarters, station, school)",,"Joondalup Police station",14,Australia,,,,,,,,,,,,,,,,,Unknown,,,,,,"The specific motive for the attack is unknown.",0,,,0,1,0,0,,,,,,,,,,8,Incendiary,20,"Gasoline or Alcohol",,,,,,,,,,,,,"A fuel tank was set ablaze in the attack.",,,"ABC, "Police Seeking Man Over Firebombings"," http://www.abc.net.au/news/stories/2008/12/10/2442883.htm"" (December 10"," 2008).""
200812100007,2008,12,10,,0,,14,Australia,12,"Australasia & Oceania","Western Australia",Joondalup,-31.743357,115.764172,1,0,"Warwick district, Joondalup Warwick Police station","12/10/2008: On Wednesday morning, at 0235, two private vehicles belonging to Warwick police officers were firebombed in Joondalup, Western Australia, Oceania, Australia.",1,1,1,0,,,0,1,0,7,"Facility/Infrastructure Attack",,,,,3,Police,25,"Police Security Forces/Officers",,"The target were private vehicles of police officers in Warwick",14,Australia,,,,,,,,,,,,,,,,,Unknown,,,,,,"The specific motive for the attack is unknown.",0,,,0,-99,0,0,,,,,,,,,,8,Incendiary,19,"Molotov Cocktail/Petrol Bomb",,,,,,,,,,,,,"A firebomb was used in the attack",,,"Watoday, Thomson, Chris, and Chalpat Sonti, "Man Charged Over Joondalup Police Station Bombing"," http://www.watoday.com.au/wa-news/man-charged-over-joondalup-police-station-bombing-20081210-6v6v.html?page=-1 (December 10"," 2008).""
200910080019,2009,10,8,,0,,14,Australia,12,"Australasia & Oceania","New South Wales","Condell Park",-33.922832,151.011897,1,0,"The explosive was placed on the hood of a car on Market Street at Condell Park, Sydney, New South Wales, Australia.","10/08/2009: On Thursday night at 0100, in Market Street in Condell park, Sydney, New South Wales, Australia, an improvised explosive device placed on the hood of a car detonated, smashing the windows of two townhouses and destroying the vehicle. Investigator Mark Smith says it is not clear if the device was intended for the vehicle or the townhouses 10-15 meters away. No group claimed responsibility.",1,1,1,0,,,0,1,0,3,Bombing/Explosion,,,,,14,"Private Citizens & Property",73,Vehicles/Transportation,,"A civilian vehicle was targeted in the attack.",14,Australia,,,,,,,,,,,,,,,,,Unknown,,,,,,"The specific motive for the attack is unknown.",0,,,0,-99,0,0,,,,,,,,,,6,Explosives,29,"Sticky Bomb",,,,,,,,,,,,,"An improvised explosive device placed  on the hood of a car was used in the attack.",,,"Abc. Net,"Car"," Houses Damaged by Homemade Bomb"," http://www.abc.net.au/news/stories/2009/10/08/2707922.htm?section=australia(October 8"
201002040023,2010,2,4,,0,,14,Australia,12,"Australasia & Oceania","Western Australia",Perth,-31.952854,115.857339,1,0,"The attack took place at a mosque in Queens Park, Perth.","02/04/2010: On Thursday night, in Queens Park, Perth, Western Australia, Australia, armed assailants fired upon a mosque, damaging the mosque but causing no casualties. No group claimed responsibility, although authorities believed Combat 18 was responsible.",1,1,1,0,,,0,1,0,2,"Armed Assault",,,,,15,"Religious Figures/Institutions",86,"Place of Worship",,"The target was a mosque.",14,Australia,,,,,,,,,,,,,,,,,"Combat 18",,,,,,"The specific motive for the attack is unknown.",1,,,0,-99,0,0,,,,,,,,,,5,Firearms,5,"Unknown Gun Type",,,,,,,,,,,,,"Unknown firearms were used in the attack.",,,"National Counterterrorism Center, "One Mosque Damaged in Armed Attack by Suspected Combat 18 in Perth"," Western Australia"," Australia"
201309020036,2013,9,2,,0,,14,Australia,12,"Australasia & Oceania",Victoria,Melbourne,-37.808896,144.950421,1,0,"The incident occurred in the West Melbourne area of the city.","09/02/2013: Assailants set fire to Gran Turismo Autos, a luxury car showroom, in West Melbourne area, Melbourne city, Victoria state, Australia. The fire damaged several vehicles, but did not cause any casualties. The Felicity Ann Ryder Cell of the Informal Anarchist Federation claimed responsibility for the attack in a post online; however, police denied that the group was involved in the incident.",1,1,1,1,4,"Lack of Intentionality",0,1,0,7,"Facility/Infrastructure Attack",,,,,1,Business,7,Retail/Grocery/Bakery,"Gran Turismo Autos","Car Dealership",14,Australia,,,,,,,,,,,,,,,,,"Informal Anarchist Federation","Felicity Ann Ryder Cell",,,,,,0,,,0,-99,0,1,7,"Posted to website, blog, etc.",,,,,,,,8,Incendiary,18,Arson/Fire,,,,,,,,,,,,,,,"There is doubt that this incident meets terrorism-related criteria. Authorities suspected that the fire may have been accidentally started by a lit cigarette.",""Anarchists claim responsibility for fire at luxury West Melbourne car dealership"," but police have doubts"," Herald Sun (Australia)"
201402240121,2014,2,24,,0,,14,Australia,12,"Australasia & Oceania",Queensland,Logan,-27.639793,153.108516,1,0,,"02/24/2014: Assailants threw three homemade incendiary devices at the Logan Police District Headquarters in Logan City, southeast Queensland state, Australia. There were no casualties in the incident; however, one police vehicle suffered fire damage. No group claimed responsibility for the incident; however, sources attributed the attack to anarchists.",1,1,1,0,,,0,1,0,7,"Facility/Infrastructure Attack",,,,,3,Police,22,"Police Building (headquarters, station, school)","Australian Federal Police (AFP)","Logan District Headquarters",14,Australia,,,,,,,,,,,,,,,,,Anarchists,,,,,,"The specific motive is unknown; however, sources noted that the attack comes after an incident of police brutality which left an indigenous woman partly blind.",0,,,0,-99,0,0,,,,,,,,,,8,Incendiary,19,"Molotov Cocktail/Petrol Bomb",,,,,,,,,,,,,"Three Molotov cocktails were used in the attack.",,,""The Logan Police District Headquarters at Logan Central has been attacked with three homemade firebombs hurled"," The Courier Mail (Australia)"," February 24"
201405180095,2014,5,18,,0,,14,Australia,12,"Australasia & Oceania","New South Wales",Sydney,-33.888408,151.237218,1,0,"The incident occurred in the Woollahra neighborhood of the city.","05/18/2014: Assailants set fire to two vehicles on Queen street in Woollahra neighborhood, Sydney city, New South Wales state, Australia. There were no reported casualties in the attack. This was one of two coordinated attacks carried out by the Informal Anarchist Federation in Woollahra neighborhood on May 18, 2014. The Informal Anarchist Federation claimed responsibility for the incident, stating that the attack was carried out in retaliation to injustice.",1,1,1,0,,,1,1,0,7,"Facility/Infrastructure Attack",,,,,14,"Private Citizens & Property",73,Vehicles/Transportation,"Not Applicable","Luxury Vehicles",14,Australia,,,,,,,,,,,,,,,,,"Informal Anarchist Federation",,,,,,"The Informal Anarchist Federation claimed responsibility for the incident and stated that the attack was carried out in retaliation to injustice.",0,,,0,-99,0,1,7,"Posted to website, blog, etc.",,,,,,,,8,Incendiary,18,Arson/Fire,,,,,,,,,,,,,,,,""Luxury cars destroyed in random attacks in Woollahra"," The Daily Telegraph (Australia)"," May 19"
201405180096,2014,5,18,,0,,14,Australia,12,"Australasia & Oceania","New South Wales",Sydney,-33.888408,151.237218,1,0,"The incident occurred in the Woolahra neighborhood of the city.","05/18/2014: Assailants set fire to a luxury vehicle on Moncur street in Woolahra neighborhood, Sydney city, New South Wales state, Australia. There were no reported casualties in the attack. This was one of two coordinated attacks carried out by the same group in Woolahra neighborhood on May 18, 2014. The Informal Anarchist Federation claimed responsibility for the incident.",1,1,1,0,,,1,1,0,7,"Facility/Infrastructure Attack",,,,,14,"Private Citizens & Property",73,Vehicles/Transportation,"Not Applicable","Luxury Vehicle",14,Australia,,,,,,,,,,,,,,,,,"Informal Anarchist Federation",,,,,,,0,,,0,-99,0,1,7,"Posted to website, blog, etc.",,,,,,,,8,Incendiary,18,Arson/Fire,,,,,,,,,,,,,,,,""Luxury cars destroyed in random attacks in Woollahra"," The Daily Telegraph (Australia)"," May 19"
201408120098,2014,8,12,,0,,14,Australia,12,"Australasia & Oceania",Victoria,Beechworth,-36.35772,146.696395,1,0,,"08/12/2014: Assailants set a private vehicle on fire that belonged to an Australian Federal Police (AFP) officer outside the police station in Beechworth town, Victoria state, Australia. There were no reported casualties in the attack. No group claimed responsibility for the incident.",1,1,1,0,,,0,1,0,7,"Facility/Infrastructure Attack",,,,,3,Police,23,"Police Patrol (including vehicles and convoys)","Australian Federal Police (AFP)",Car,14,Australia,,,,,,,,,,,,,,,,,Unknown,,,,,,,0,,,0,2,0,0,,,,,,,,,,8,Incendiary,20,"Gasoline or Alcohol",,,,,,,,,,,,,"Gasoline was used in the attack.",,,""The ugly secret of a town's fire"," Southern Highland News"," October 25"
201409230034,2014,9,23,,0,,14,Australia,12,"Australasia & Oceania",Victoria,Melbourne,-37.814107,144.96328,1,0,,"09/23/2014: An assailant stabbed two police officers in Melbourne city, Victoria state, Australia. Authorities shot and killed the assailant and the two police officers were wounded in the attack. No group claimed responsibility for the incident; however, sources attributed the attack to an individual, identified as Abdul Numan Haider.",1,1,1,0,,,0,1,0,2,"Armed Assault",,,,,3,Police,25,"Police Security Forces/Officers","Australian Federal Police (AFP)",Officers,14,Australia,,,,,,,,,,,,,,,,,"Jihadi-inspired extremists",,,,,,"The specific motive is unknown; however, sources posited that prior to the attack the assailant, Abdul Numan Haider, had posted a message on Facebook, which criticized the Australian Federal Police (AFP) and alleged that they were at war with Islam.",0,,,1,1,0,0,,,,,,,,,,9,Melee,23,"Knife or Other Sharp Object",,,,,,,,,,,,,,,,""ISIS Lieutenant Emerges From Australian Red-Light District"," The New York Times"," September 26"
201411030015,2014,11,3,,0,,14,Australia,12,"Australasia & Oceania","New South Wales",Bankstown,-33.907092,151.057308,1,0,"The incident occurred in the Greenacre neighborhood","11/03/2014: Assailants opened fire on Rasoul Al-Musawi outside of an Islamic prayer center in Bankstown area, New South Wales state, Australia. Musawi, a Shia religious leader, was wounded in the attack. No group claimed responsibility for the incident; however, people chanting pro-Islamic State of Iraq and the Levant (ISIL) statements drove by the center just before the shooting.",1,1,1,0,,,0,1,0,2,"Armed Assault",,,,,15,"Religious Figures/Institutions",85,"Religious Figure","Husainiyah Nabi Akram","Shiite Cleric: Rasoul al-Mousawi",95,Iraq,,,,,,,,,,,,,,,,,Unknown,,,,,,,0,,,1,-99,0,0,,,,,,,,,,5,Firearms,5,"Unknown Gun Type",,,,,,,,,,,,,"Pellets were used in the attack.",,,""Religious leader shot outside Islamic centre in Greenacre following threats"," Melbourne Age"," November 3"
201412020073,2014,12,2,,0,,14,Australia,12,"Australasia & Oceania","New South Wales",Oberon,-33.704174,149.857408,1,0,,"12/02/2014: Assailants set fire to the Oberon NSW Slaughterhouse in Oberon town, New South Wales state, Australia. There were no reported casualties in the attack; however, the building was damaged in the attack. The Animal Liberation Front (ALF) claimed responsibility for the incident and stated that the attack was carried out in retaliation for profiting from animal abuse.",1,1,1,0,,,0,1,0,7,"Facility/Infrastructure Attack",,,,,1,Business,9,Farm/Ranch,"Oberon NSW Slaughterhouse",Slaughterhouse,14,Australia,,,,,,,,,,,,,,,,,"Animal Liberation Front (ALF)",,,,,,"The Animal Liberation Front (ALF) claimed responsibility for the incident and stated that the attack was carried out in retaliation to the profiting from animal abuse.",0,,,0,-99,0,1,7,"Posted to website, blog, etc.",,,,,,,,8,Incendiary,18,Arson/Fire,,,,,,,,,,,,,,,,""Police investigate Oberon Abattoir fire"," Western Advocate"," December 3"
201412150032,2014,12,15,,0,,14,Australia,12,"Australasia & Oceania","New South Wales",Sydney,-33.867979,151.211038,1,0,"The incident occurred in the Martin Place neighborhood","12/15/2014: An assailant, Mon Haron Monis, took 18 people hostage in the Lindt Chocolate cafe in Sydney city, New South Wales state, Australia. Five hostages were able to escape during standoff. After 16 hours, police stormed the cafe and freed the living hostages. In total, Monis and two hostages were killed and four other hostages were wounded in the attack and siege. No group claimed responsibility for the incident.",1,1,1,0,,,0,1,0,5,"Hostage Taking (Barricade Incident)",,,,,1,Business,2,Restaurant/Bar/Café,"Lindt Chocolate Cafe",Cafe,14,Australia,,,,,,,,,,,,,,,,,"Jihadi-inspired extremists",,,,,,,0,,,1,1,0,0,,,,,,,,,,5,Firearms,4,"Rifle/Shotgun (non-automatic)",,,,,,,,,,,,,"A sawed-off shotgun was used in the attack.",16,"During the standoff, Monis had declared allegiance to the Islamic State of Iraq and the Levant (ISIL).",""Lone   gunman","   two hostages killed in Sydney cafe siege: police"," Agence France Presse -- English"
201501240090,2015,1,24,,0,,14,Australia,12,"Australasia & Oceania",Queensland,Toowoomba,-27.581562,151.933834,1,0,"The incident occurred in the Harristown neighborhood.","01/24/2015: Assailants set fire to Garden City mosque in Harristown, Queensland, Australia. There were no reported casualties, though the mosque was damaged by the fire. No group claimed responsibility for the incident.",1,1,1,0,,,0,1,0,7,"Facility/Infrastructure Attack",,,,,15,"Religious Figures/Institutions",86,"Place of Worship","Garden City Mosque",Mosque,14,Australia,,,,,,,,,,,,,,,,,Unknown,,,,,,,0,,,0,-99,0,0,,,,,,,,,,8,Incendiary,18,Arson/Fire,,,,,,,,,,,,,,,,""Mosque arson attack denounced by show of solidarity"," Surat Basin Online"," January 26"
201503300083,2015,3,30,,0,,14,Australia,12,"Australasia & Oceania",Victoria,Brighton,-37.898215,144.995554,1,0,"The incident occurred on North Rd.","03/30/2015: Assailants set fire to St. James Church on North Road in Brighton, Victoria, Australia. There were no reported casualties but the church was damaged in the incident. This was one of two attacks targeting churches in Victoria on the same day. No group claimed responsibility for the incidents.",1,1,1,0,,,1,1,0,7,"Facility/Infrastructure Attack",,,,,15,"Religious Figures/Institutions",86,"Place of Worship","St. James Church",Church,14,Australia,,,,,,,,,,,,,,,,,Unknown,,,,,,,0,,,0,-99,0,0,,,,,,,,,,8,Incendiary,18,Arson/Fire,,,,,,,,,,,,,,,,""Fourth Melbourne church fire not linked to Brighton"," Dandenong fires"," police believe"
201503300084,2015,3,30,,0,,14,Australia,12,"Australasia & Oceania",Victoria,"St. Kilda East",-37.858684,144.996338,1,0,"The incident occurred on Dandenong Rd.","03/30/2015: Assailants set fire to St. Mary's Church on Dandenong Road in St. Kilda East, Victoria, Australia. There were no reported casualties but the church was damaged in the incident. This was one of two attacks targeting churches in Victoria on the same day. No group claimed responsibility for the incidents.",1,1,1,0,,,1,1,0,7,"Facility/Infrastructure Attack",,,,,15,"Religious Figures/Institutions",86,"Place of Worship","St. Mary's Church",Church,14,Australia,,,,,,,,,,,,,,,,,Unknown,,,,,,,0,,,0,-99,0,0,,,,,,,,,,8,Incendiary,18,Arson/Fire,,,,,,,,,,,,,,,,""Fourth Melbourne church fire not linked to Brighton"," Dandenong fires"," police believe"
201504010112,2015,4,1,,0,,14,Australia,12,"Australasia & Oceania",Victoria,Dandenong,-37.988975,145.217452,1,0,"The incident occurred on Foster St.","04/01/2015: Assailants set fire to St. Mary's Church on Foster Street in Dandenong, Victoria, Australia. There were no reported casualties but the church was damaged in the attack. No group claimed responsibility for the incident.",1,1,1,0,,,0,1,0,7,"Facility/Infrastructure Attack",,,,,15,"Religious Figures/Institutions",86,"Place of Worship","St. Mary's Church",Church,14,Australia,,,,,,,,,,,,,,,,,Unknown,,,,,,,0,,,0,-99,0,0,,,,,,,,,,8,Incendiary,18,Arson/Fire,,,,,,,,,,,,,,,,""Fourth Melbourne church fire not linked to Brighton"," Dandenong fires"," police believe"
201504030095,2015,4,3,,0,,14,Australia,12,"Australasia & Oceania",Victoria,Melbourne,-37.789922,145.170775,1,0,"The incident occurred on Doncaster Rd.","04/03/2015: Assailants set fire to St. David's Church on Doncaster Road in Melbourne, Australia. There were no reported casualties but the church was damaged in the attack. No group claimed responsibility for the incident.",1,1,1,0,,,0,1,0,7,"Facility/Infrastructure Attack",,,,,15,"Religious Figures/Institutions",86,"Place of Worship","St. David's Church","Anglican Church",14,Australia,,,,,,,,,,,,,,,,,Unknown,,,,,,,0,,,0,-99,0,0,,,,,,,,,,8,Incendiary,18,Arson/Fire,,,,,,,,,,,,,,,,""Fourth Melbourne church fire not linked to Brighton"," Dandenong fires"," police believe"
201504170084,2015,4,17,,0,,14,Australia,12,"Australasia & Oceania",Queensland,Toowoomba,-27.564238,151.947275,1,0,,"04/17/2015: Assailants set fire to Garden City mosque in Harristown, Toowoomba city, Queensland state, Australia. No casualties were reported. No group claimed responsibility for the incident.",1,1,1,0,,,0,1,0,7,"Facility/Infrastructure Attack",,,,,15,"Religious Figures/Institutions",86,"Place of Worship","Garden City Mosque",Mosque,14,Australia,,,,,,,,,,,,,,,,,Unknown,,,,,,,0,,,0,-99,0,0,,,,,,,,,,8,Incendiary,18,Arson/Fire,,,,,,,,,,,,,,,,""Arson Attack Leaves Queensland Mosque 'Almost Completely Destroyed' Two Days Before Opening"," International Business Times Australia"," April 17"
201505170064,2015,5,17,,0,,14,Australia,12,"Australasia & Oceania",Tasmania,Hobart,-42.884049,147.323719,1,0,,"05/17/2015: Assailants set fire to a nightclub in Hobart city, Tasmania, Australia. No casualties were reported. No group claimed responsibility for the incident.",0,1,1,1,2,"Other Crime Type",0,1,0,7,"Facility/Infrastructure Attack",,,,,1,Business,2,Restaurant/Bar/Café,Flamingos,Bar,14,Australia,,,,,,,,,,,,,,,,,Unknown,,,,,,,0,,,0,-99,0,0,,,,,,,,,,8,Incendiary,18,Arson/Fire,,,,,,,,,,,,,"Accelerant liquid was used in the attack.",,"There is doubt that this incident meets terrorism-related criteria. The nightclub's owner speculated that the assailant was either a "disgruntled patron"" or had a homophobic motive."",""CCTV captures arson attack on club"," Tasmania Mercury"," May 20"
201507170050,2015,7,17,,0,,14,Australia,12,"Australasia & Oceania","New South Wales",Sydney,-33.829658,151.117538,1,0,"The incident occurred in Tennyson Point neighborhood.","07/17/2015: An explosive device was found and defused outside the home of Brad Haddin, a cricket player, in Tennyson Point suburb, Sydney, Australia. No group claimed responsibility for the incident.",1,1,1,1,4,"Lack of Intentionality",0,0,0,3,Bombing/Explosion,,,,,20,Unknown,,,Unknown,Unknown,14,Australia,,,,,,,,,,,,,,,,,Unknown,,,,,,,0,,,0,-99,0,0,,,,,,,,,,6,Explosives,17,"Other Explosive Type",,,,,,,,,,,,,"A crude bomb containing two butane canisters and an attached wick was used in the attack.",,"There is doubt that this incident meets terrorism-related criteria. It is unclear if the explosive device was intended to be used to carry out an attack.",""Explosive Device Found Outside Australian Cricketer Brad Haddin's Sydney Home"," International Business Times"," July 18"
201510020040,2015,10,2,,0,,14,Australia,12,"Australasia & Oceania","New South Wales",Parramatta,-33.815129,151.003278,1,0,,"10/02/2015: An assailant opened fire on a civilian police employee outside a police headquarters in Parramatta city, Sydney region, New South Wales province, Australia. The civilian employee, Curtis Cheng, and the assailant were killed in the assault. No group claimed responsibility; however, sources identified the attacker as Farad Jabar Khalil Mohammad.",1,1,1,0,,,0,1,0,2,"Armed Assault",,,,,3,Police,25,"Police Security Forces/Officers","Australian Federal Police (AFP)","Civilian Police Employee",14,Australia,,,,,,,,,,,,,,,,,"Jihadi-inspired extremists",,,,,,,0,,,1,1,0,0,,,,,,,,,,5,Firearms,5,"Unknown Gun Type",,,,,,,,,,,,,,,,""Teenage terrorist Farhad Jabar spoke with Islamic State recruiter Neil Prakash"," news.com.au"," October 14"
201510150067,2015,10,14,,0,,14,Australia,12,"Australasia & Oceania",Victoria,Bannockburn,-38.047645,144.170032,1,0,"The incident occurred on High St.","10/14/2015: Assailants set fire to St. John the Evangelist church in Bannockburn, Victoria, Australia. No casualties were reported in the attack. No group claimed responsibility for the incident.",1,1,1,0,,,0,1,0,7,"Facility/Infrastructure Attack",,,,,15,"Religious Figures/Institutions",86,"Place of Worship",Unknown,Mosque,14,Australia,,,,,,,,,,,,,,,,,Unknown,,,,,,,0,,,0,-99,0,0,,,,,,,,,,8,Incendiary,18,Arson/Fire,,,,,,,,,,,,,,,,""Geelong's Muslims get prayer space after fire guts mosque"," Melbourne Age"," May 18"
201511210064,2015,11,21,,0,,14,Australia,12,"Australasia & Oceania","New South Wales",Orange,-33.283013,149.100151,1,0,,"11/21/2015: Assailants threw Molotov cocktails at the Heatherbrae Parade church in Orange, New South Wales, Australia. There were no reported casualties. No group claimed responsibility for the incident.",1,1,1,0,,,0,1,0,7,"Facility/Infrastructure Attack",,,,,15,"Religious Figures/Institutions",86,"Place of Worship","Heatherbrae Parade Church",Church,14,Australia,,,,,,,,,,,,,,,,,Unknown,,,,,,,0,,,0,-99,0,0,,,,,,,,,,8,Incendiary,19,"Molotov Cocktail/Petrol Bomb",,,,,,,,,,,,,"Several Molotov cocktails were used in the attack.",,,""NO TITLE SUPPLIED"," Western Advocate (Fairfax Media)"," November 24"
201511230093,2015,11,23,,0,,14,Australia,12,"Australasia & Oceania","New South Wales",Orange,-33.283013,149.100151,1,0,,"11/23/2015: Assailants threw Molotov cocktails at St. Peter's Lutheran Church in Orange, New South Wales, Australia. There were no reported casualties. No group claimed responsibility for the incident.",1,1,1,0,,,0,1,0,7,"Facility/Infrastructure Attack",,,,,15,"Religious Figures/Institutions",86,"Place of Worship","St. Peter's Lutheran Church",Church,14,Australia,,,,,,,,,,,,,,,,,Unknown,,,,,,,0,,,0,-99,0,0,,,,,,,,,,8,Incendiary,19,"Molotov Cocktail/Petrol Bomb",,,,,,,,,,,,,"Molotov cocktails were used in the attack.",,,""NO TITLE SUPPLIED"," Western Advocate (Fairfax Media)"," November 24"
201512050036,2015,12,5,,0,,14,Australia,12,"Australasia & Oceania",Victoria,Norlane,-38.091417,144.357575,1,0,"The incident occurred on Sparks Rd.","12/05/2015: Assailants set fire to St. Peter's Chains church on Sparks road in Norlane, Victoria, Australia. No casualties were reported in the attack. This was one of two related attacks on this day. No group claimed responsibility for the incident.",1,1,1,0,,,1,1,0,7,"Facility/Infrastructure Attack",,,,,15,"Religious Figures/Institutions",86,"Place of Worship","St. Peter's Church",Church,14,Australia,,,,,,,,,,,,,,,,,Unknown,,,,,,,0,,,0,-99,0,0,,,,,,,,,,8,Incendiary,18,Arson/Fire,,,,,,,,,,,,,,,,""Geelong's Muslims get prayer space after fire guts mosque"," Melbourne Age"," May 18"
201512050037,2015,12,5,,0,,14,Australia,12,"Australasia & Oceania",Victoria,Norlane,-38.094181,144.3571,1,0,"The incident occurred on Spruhan Ave.","12/05/2015: Assailants set fire to the Norlane Baptist Church on Spruhan Avenue, Norlane, Victoria, Australia. No casualties were reported in the attack. This was one of two related attacks on this day. No group claimed responsibility for the incident.",1,1,1,0,,,1,1,0,7,"Facility/Infrastructure Attack",,,,,15,"Religious Figures/Institutions",86,"Place of Worship",Unknown,"Baptist Church",14,Australia,,,,,,,,,,,,,,,,,Unknown,,,,,,,0,,,0,-99,0,0,,,,,,,,,,8,Incendiary,18,Arson/Fire,,,,,,,,,,,,,,,,""Geelong's Muslims get prayer space after fire guts mosque"," Melbourne Age"," May 18"
201604150070,2016,4,14,,0,,14,Australia,12,"Australasia & Oceania",Victoria,Geelong,-38.138255,144.348328,1,0,,"04/14/2016: Assailants set fire to the Geelong West Presbyterian Church in Geelong, Victoria, Australia. There were no reported casualties, but the church was damaged in the attack. No group claimed responsibility for the incident; however, sources suggested that the attack may have been related to allegations of past sexual abuse by local priests.",1,1,1,0,,,0,1,0,7,"Facility/Infrastructure Attack",,,,,15,"Religious Figures/Institutions",86,"Place of Worship","Geelong West Presbyterian Church",Church,14,Australia,,,,,,,,,,,,,,,,,Unknown,,,,,,,0,,,0,-99,0,0,,,,,,,,,,8,Incendiary,18,Arson/Fire,,,,,,,,,,,,,,,,""Who is burning Geelong's churches?"," Australian Broadcasting Corporation (ABC) News"," May 18"
201605140067,2016,5,15,,0,,14,Australia,12,"Australasia & Oceania",Victoria,Fawkner,-37.698179,144.965079,1,0,,"05/15/2016: Assailants threw firebombs at the Imam Ali Islamic Centre in Fawkner, Victoria, Australia. There were no reported casualties in the attack. No group claimed responsibility for the incident.",1,1,1,0,,,0,1,0,7,"Facility/Infrastructure Attack",,,,,15,"Religious Figures/Institutions",87,"Affiliated Institution","Imam Ali Islamic Centre","Shia Community Center",14,Australia,,,,,,,,,,,,,,,,,Unknown,,,,,,,0,,,0,-99,0,0,,,,,,,,,,8,Incendiary,19,"Molotov Cocktail/Petrol Bomb",,,,,,,,,,,,,"Firebombs were used in the attack.",,,""Police search for culprits behind the fire-bombing of Islamic community centre"," Sydney Morning Herald"," February 25"
201605180073,2016,5,18,,0,,14,Australia,12,"Australasia & Oceania",Victoria,Geelong,-38.133743,144.333937,1,0,,"05/18/2016: Assailants set fire to a mosque in Geelong, Victoria, Australia. There were no reported casualties in the attack. No group claimed responsibility for the incident; however, sources suggested that the mosque was targeted because the assailants mistook it for a church.",1,1,1,0,,,0,1,0,7,"Facility/Infrastructure Attack",,,,,15,"Religious Figures/Institutions",86,"Place of Worship",Unknown,Mosque,14,Australia,,,,,,,,,,,,,,,,,Unknown,,,,,,"The specific motive is unknown; however, sources posited that the mosque was targeted because the assailants believed it was a church.",0,,,0,-99,0,0,,,,,,,,,,8,Incendiary,18,Arson/Fire,,,,,,,,,,,,,,,,""Geelong's Muslims get prayer space after fire guts mosque"," Melbourne Age"," May 18"
201606280010,2016,6,28,,0,,14,Australia,12,"Australasia & Oceania","Western Australia",Perth,-32.053696,115.960731,1,0,,"06/28/2016: Assailants threw a petrol bomb at Thornlie Mosque in Perth, Western Australia state, Australia. There were no reported casualties in the attack. No group claimed responsibility for the incident.",1,1,1,0,,,0,1,0,7,"Facility/Infrastructure Attack",,,,,15,"Religious Figures/Institutions",86,"Place of Worship","Thornlie Mosque",Mosque,14,Australia,,,,,,,,,,,,,,,,,Unknown,,,,,,"The specific motive is unknown; however, sources noted that there was derogatory language regarding Islam spray-painted on the wall.",0,,,0,-99,0,0,,,,,,,,,,8,Incendiary,19,"Molotov Cocktail/Petrol Bomb",,,,,,,,,,,,,"A petrol bomb was used in the attack.",,,""Firebomb explodes outside Perth mosque as hundreds pray"," Al Jazeera"," June 29"
201607240025,2016,7,24,,0,,14,Australia,12,"Australasia & Oceania","Western Australia",Perth,-31.959414,115.873955,1,0,,"07/24/2016: Assailants set fire to the entrance of the 6PR radio station in Perth, Western Australia, Australia. There were no reported casualties in the attack. No group claimed responsibility for the incident; however, sources noted that the attack may have been related to a radio discussion on Islam earlier that day.",1,1,1,0,,,0,1,0,2,"Armed Assault",,,,,10,"Journalists & Media",54,"Radio Journalist/Staff/Facility","6PR Radio Station","Radio Station",14,Australia,,,,,,,,,,,,,,,,,Unknown,,,,,,"The specific motive is unknown; however, sources noted that the attack may have been related to a radio discussion on Islam earlier that day.",0,,,0,-99,0,0,,,,,,,,,,8,Incendiary,18,Arson/Fire,,,,,,,,,,,,,,,,""Arson attack on Radio 6PR and WAtoday building"," Melbourne Age"," July 24"
201609100025,2016,9,10,,0,,14,Australia,12,"Australasia & Oceania","New South Wales",Minto,-34.031804,150.850332,1,0,,"09/10/2016: An assailant stabbed and injured Wayne Greenhalg, a civilian, in Minto, New South Wales, Australia. Ihsas Khan claimed responsibility for the incident, and authorities suspected that the attack was inspired by the Islamic State of Iraq and the Levant (ISIL).",1,1,1,0,,,0,1,0,2,"Armed Assault",,,,,14,"Private Citizens & Property",68,"Named Civilian","Not Applicable","Civilian: Wayne Greenhalg",14,Australia,,,,,,,,,,,,,,,,,"Jihadi-inspired extremists",,,,,,"The specific motive is unknown; however, authorities suspected that the attack was inspired by the Islamic State of Iraq and the Levant (ISIL).",0,,,1,1,1,1,8,"Personal claim",,,,,,,,9,Melee,23,"Knife or Other Sharp Object",,,,,,,,,,,,,"A hunting knife was used in the attack.",,,""ISIS-inspired Australian stabber charged with terrorism"," attempted murder"," Jerusalem Post"
201609230071,2016,9,23,,0,,14,Australia,12,"Australasia & Oceania","New South Wales","Hobbys Yards",-33.694586,149.328405,1,0,,"09/23/2016: Assailants set fire to St. Peter's Uniting Church in Hobbys Yards, New South Wales, Australia. There were no reported casualties in the attack. No group claimed responsibility for the incident.",1,1,1,0,,,0,1,0,7,"Facility/Infrastructure Attack",,,,,15,"Religious Figures/Institutions",86,"Place of Worship","St. Peter's Uniting Church",Church,14,Australia,,,,,,,,,,,,,,,,,Unknown,,,,,,,0,,,0,-99,0,0,,,,,,,,,,8,Incendiary,18,Arson/Fire,,,,,,,,,,,,,,,,""Church hit by fire"," Blayney Chronicle"," September 26"
201611240059,2016,11,24,,0,,14,Australia,12,"Australasia & Oceania",Victoria,Fawkner,-37.698036,144.965437,1,0,"The incident occurred in the Fawkner suburb in the north of the city.","11/24/2016: Assailants threw incendiary devices at the Imam Ali Islamic Center in Fawkner, north of Melbourne, Australia. There were no reported casualties in the attack. No group claimed responsibility for the incident.",1,1,1,0,,,0,1,0,7,"Facility/Infrastructure Attack",,,,,15,"Religious Figures/Institutions",87,"Affiliated Institution","Imam Ali Islamic Center","Islamic Community Center",14,Australia,,,,,,,,,,,,,,,,,"Jihadi-inspired extremists",,,,,,,0,,,1,2,2,0,,,,,,,,,,8,Incendiary,19,"Molotov Cocktail/Petrol Bomb",,,,,,,,,,,,,"Firebombs were used in the attack.",,,""Three men face charges for IS-inspired arson attacks in Melbourne"," Deutsche Presse-Agentur"," August 20"
201612110032,2016,12,11,,0,,14,Australia,12,"Australasia & Oceania",Victoria,Fawkner,-37.698082,144.964664,1,0,,"12/11/2016: Assailants threw an incendiary device at the Imam Ali Islamic Centre in Fawkner, Victoria, Australia. There were no reported casualties. No group claimed responsibility for the incident and while the specific motive is unknown, the words "Islamic State"" were spray-painted on the building."",1,1,1,0,,,0,1,0,7,"Facility/Infrastructure Attack",,,,,15,"Religious Figures/Institutions",87,"Affiliated Institution","Imam Ali Islamic Centre","Religious Community Center",14,Australia,,,,,,,,,,,,,,,,,"Jihadi-inspired extremists",,,,,,"Jihadi-Inspired extremists claimed responsibility for the incident and stated "that Sunnis were the only Muslims."" Sources also noted that the assailants carried out the attack in order to intimidate members of the Shia Muslim community and that the words ""Islamic State"" were spray-painted on the building."",0,,,1,3,3,1,8,"Personal claim",,,,,,,,8,Incendiary,19,"Molotov Cocktail/Petrol Bomb",,,,,,,,,,,,,"A firebomb was used in the attack.",,,""Three men face charges for IS-inspired arson attacks in Melbourne"," Deutsche Presse-Agentur"," August 20"
201706050019,2017,6,5,,0,,14,Australia,12,"Australasia & Oceania",Victoria,Brighton,-37.906633,145.007628,1,0,"The incident occurred on Bay street.","06/05/2017: An assailants took a sex worker hostage at the Buckingham Serviced Apartments on Bay Street in Brighton, Victoria, Australia. At least two people, including the assailant, were killed and three Victoria Police officers were injured in the incident. The hostage was released a few hours later. Yacqub Khayre claimed responsibility and stated that he carried out the attack on behalf of the Islamic State of Iraq and the Levant (ISIL) and Al-Qaida.",1,1,1,0,,,0,1,0,5,"Hostage Taking (Barricade Incident)",,,,,3,Police,25,"Police Security Forces/Officers","Victoria Police",Officers,14,Australia,14,"Private Citizens & Property",77,"Laborer (General)/Occupation Identified","Not Applicable","Sex Worker",45,Colombia,,,,,,,,,"Jihadi-inspired extremists",,,,,,"An unaffiliated individual, identified as Yacqub Khayre, claimed responsibility for the incident and stated that he carried out the attack on behalf of the Islamic State of Iraq and the Levant (ISIL) and Al-Qaida.",0,,,1,1,0,1,8,"Personal claim",,,,,,,,5,Firearms,5,"Unknown Gun Type",,,,,,,,,,,,,,1,"The Islamic State of Iraq and the Levant (ISIL) claimed responsibility for the incident; however, Khayre's connection to ISIL could not be confirmed. Furthermore, Khayre had previous been linked to Al-Shabaab. Casualty numbers conflict across sources. Following GTD protocol, the majority reliable estimates are reported here.",""Australia police regard Melbourne attack as 'act of terrorism'"," Jerusalem Post"," June 5"
201707150042,2017,7,15,,0,,14,Australia,12,"Australasia & Oceania","New South Wales",Sydney,-33.934491,151.179691,1,0,,"07/15/2017: Assailants attempted to smuggle luggage containing two explosive devices onto an airplane at Sydney Airport in Sydney, Australia. After the luggage was refused by the airline for being overweight, the assailants left the airport and subsequently dismantled the devices. No group claimed responsibility for the incident; however, sources stated that the attempted attack was coordinated by the Islamic State of Iraq and the Levant (ISIL).",1,1,1,0,,,0,0,1,3,Bombing/Explosion,,,,,6,"Airports & Aircraft",42,"Aircraft (not at an airport)","Etihad Airways",Airplane,14,Australia,,,,,,,,,,,,,,,,,"Islamic State of Iraq and the Levant (ISIL)",,,,,,,0,,,0,3,2,0,,,,,,,,,,6,Explosives,13,"Suicide (carried bodily by human being)",,,,,,,,,,,,,"Two explosive devices, including one hidden inside a meat grinder and another inside a Barbie doll, planted inside luggage were used in the attack.",,,""Australian terror plan to hide plane bomb in Barbie revealed"," BBC"," August 21"
201802090012,2018,2,9,,0,,14,Australia,12,"Australasia & Oceania",Victoria,Melbourne,-37.673883,145.075344,1,0,"The incident occurred in the Callistemon Rise are of the Mill Park neighborhood.","02/09/2018: An assailant stabbed Roger Singaravelu at his residence in Mill Park neighborhood, Melbourne, Australia. Singaravelu, who had served as a homestay host to the assailant, was injured in the assault. No group claimed responsibility for the incident; however, authorities arrested and charged Momena Shoma in connection with the attack and stated that Shoma was inspired by the Islamic State of Iraq and the Levant (ISIL).",1,1,1,0,,,0,1,0,2,"Armed Assault",,,,,14,"Private Citizens & Property",68,"Named Civilian","Not Applicable","Civilian: Roger Singaravelu",14,Australia,,,,,,,,,,,,,,,,,"Jihadi-inspired extremists",,,,,,"The specific motive is unknown; however, sources noted that the attack was inspired by the Islamic State of Iraq and the Levant (ISIL). Sources also noted that the assailant's sister admitted to being a member of the Jama'atul Mujahideen Bangladesh (JMB).",0,,,1,1,1,0,,,,,,,,,,9,Melee,23,"Knife or Other Sharp Object",,,,,,,,,,,,,"A knife was used in the attack.",,,""Sister of Bangladeshi student accused of Melbourne stabbing arrested in Dhaka; Police say Asmaul Husna"," 22"," attacked officers with a knife when they tried to question her"
201805270039,2018,5,27,,0,,14,Australia,12,"Australasia & Oceania","New South Wales",Glenreagh,-30.050734,152.976779,1,0,"The incident occurred along Boundary street.","05/27/2018: Assailants set fire to St. Paul's Catholic Church in Glenreagh, New South Wales, Australia. There were no reported casualties. No group claimed responsibility for the incident.",1,1,1,0,,,0,1,0,7,"Facility/Infrastructure Attack",,,,,15,"Religious Figures/Institutions",86,"Place of Worship","Saint Paul's Catholic Church",Church,14,Australia,,,,,,,,,,,,,,,,,Unknown,,,,,,,0,,,0,-99,0,0,,,,,,,,,,8,Incendiary,18,Arson/Fire,,,,,,,,,,,,,,,,""Arsonists suspected"," Daily Examiner (Grafton"," New South Wales)"
201811090001,2018,11,9,,0,,14,Australia,12,"Australasia & Oceania",Victoria,Melbourne,-37.813628,144.963057,1,0,,"11/09/2018: An assailant exited his car, which was loaded with gas cylinders that caught fire, and proceeded to stab civilians in central Melbourne, Australia. One civilian was killed and two others were injured in the attack before the assailant was shot and killed by police. Sources noted that the assailant, Hassan Khalif Shire Ali, had his passport revoked in 2015 because authorities believed he was planning to travel to Syria in order to join the Islamic State of Iraq and the Levant (ISIL).",1,1,1,0,,,0,1,0,2,"Armed Assault",,,,,14,"Private Citizens & Property",67,"Unnamed Civilian/Unspecified","Not Applicable",Civilians,14,Australia,3,Police,25,"Police Security Forces/Officers","Government of Australia",Officers,14,Australia,,,,,,,,,"Jihadi-inspired extremists",,,,,,"The specific motive is unknown; however, sources noted that Hassan Khalif Shire Ali's passport was cancelled in 2015 because authorities believed he was planning to travel to Syria in order to join the Islamic State of Iraq and the Levant (ISIL).",0,,,1,1,0,0,,,,,,,,,,8,Incendiary,20,"Gasoline or Alcohol",9,Melee,23,"Knife or Other Sharp Object",,,,,,,,,"A pickup truck filled with gas cylinders and a knife were used in the attack.",,"The Islamic State of Iraq and the Levant (ISIL)'s Amaq News Agency claimed that Hassan Khalif Shire Ali was "one of Islamic State fighters;"" however"," there was no known connection between Ali and ISIL found. The victims included restaurant owner Sisto Malaspina."",""Police Say Treating Melbourne Stabbing As A Terror Attack"," AFP (World Service)"
